# Made by eph2tle, compiled Apr 30 2024 22:26:27
# Run at Fri May 10 08:51:00 2024
#
#    The following TLEs (Two-Line Elements) were generated by fitting
# a numerically-integrated ephemeris,  based on the orbit given below,
# to the SDP4/SGP4 models.  Each TLE is good for the interval between
# its epoch and the epoch of the subsequent TLE (usually one day).
# The maximum deviation between the numerically integrated ephemerides
# and the TLE-based ephemeris, in kilometers,  is given for each TLE
# as the "worst residual".
#
#    This fitting is done using the 'eph2tle' code packaged with Find_Orb.
# The code has details on how the TLEs were computed :
#
#    https://github.com/Bill-Gray/find_orb/eph2tle.cpp
#
#    Be warned:  the error given is that between the numerically
# integrated ephems and the TLE model.  There will usually be at
# least some additional difference between the ephems and the actual
# motion of the satellite,  especially if the ephemerides are based
# on a short arc.  If the following orbital elements say something
# like "[based on] 10 observations 2015 Jan. 1-13",  and the TLEs
# are for 2015 May,  the extrapolation may be tenuous at best.  If
# your application requires a specific level of accuracy,  you may
# want to contact me;  I can give you some idea as to the fit of the
# underlying data (and possibly TLEs based on newer data).
#
#   You can usually find the underlying observational data,  and the
# fitted orbit,  residuals,  ephemerides,  and sometimes some comments
# about the object,  among the pages listed at
#
#    https://www.projectpluto.com/pluto/mpecs/pseudo.htm
#
#    WARNING:  for this object,  "normal" TLEs cannot be fitted.  (This
# usually means an object with an hyperbolic or nearly-parabolic orbit.)
# For this and similar cases,   an alternative model is used,  in which
# most of the traditional TLE data is replaced by six signed 8-digit hex
# numbers.  These six numbers are a state vector,  numerically integrated
# using a simplified force model.  This is necessary for objects at L2 or
# L1,  and sometimes for objects in high orbits where the SDP4/SGP4 model
# fails.  Some documentation is in 'get_el.cpp' in the source code at
# https://www.github.com/Bill-Gray/sat_code ; look for 'hex' in that file,
# with the actual integration done in 'sdp4.cpp'.  But be aware:  it's my
# own extension,  doesn't work with other code,  and is therefore used
# only when necessary.
#
#    Also,  if you use a TLE outside the "correct" time range (between
# its MJD and that of the next TLE),  all bets are off.  I've carefully
# computed and minimized the worst error over the "correct" time frame,
# but the ephemeris may (or may not) diverge wildly outside of it.
#
# Ephem range: 60361.500000 60690.500000 1.000000
# Created Fri May 10 08:50:55 2024
# Ephemeris start: 21 Feb 2024 12:00:00
# Ephemeris end:   15 Jan 2025 12:00:00
# Times are all TDT
# Positions/velocities are in equatorial J2000
# Orbital elements:  2024-030B = NORAD 58964 = Falcon 9-300 Stage 2
#    Perihelion 2023 Dec 30.7842746 +/- 0.00032 TT = 18:49:21.32 (JD 2460309.2842746)
# Epoch 2024 May 10.0 TT; AMR 0.014623 +/- 0.000105 m^2/kg   Earth MOID: 0.0004
# M 130.4445734631 +/- 0.00035        (J2000 ecliptic)             Find_Orb
# n   0.9941230216 +/- 2.66e-7        Peri.  240.9184521 +/- 0.00019
# a   0.9942813541 +/- 1.78e-7        Node   216.8844377 +/- 0.00019
# e   0.024651686 +/- 1.06e-7         Incl.    0.2610810 +/- 3.29e-7
# P   0.991/362.121d         H 26.62  G  0.15   U  2.6
# q 0.9697706414 +/- 2.76e-7    Q 1.0187920668 +/- 8.51e-8
# 186 of 197 observations 2024 Feb. 15-May 10; mean residual 0".703
#
# 1 NoradU COSPAR   Epoch.epoch     dn/dt/2  d2n/dt2/6 BSTAR    T El# C
# 2 NoradU Inclina RAAscNode Eccent  ArgPeri MeanAno  MeanMotion Rev# C

# Worst residual: 2767.35 km
# MJD 60361.500000 (2024 Feb 21 12:00)
2024-030B = NORAD 58964 = Falcon 9-300 Stage 2
1 58964U 24030B   24052.49919926 -003FR2AY +0050LBEW +002V1JTWH 23227
2 58964                          +0001LDAX -0000V897 -00003207     03

# Worst residual: 12.30 km
# MJD 60362.500000 (2024 Feb 22 12:00)
2024-030B = NORAD 58964 = Falcon 9-300 Stage 2
1 58964U 24030B   24053.49919926 -0047MUVW +004BXGR1 +0017Z187H 23225
2 58964                          -00042VK6 -0003NLM1 -0006Z259     05

# Worst residual: 2.78 km
# MJD 60363.500000 (2024 Feb 23 12:00)
2024-030B = NORAD 58964 = Falcon 9-300 Stage 2
1 58964U 24030B   24054.49919926 -00527YPR +003C319E -000FVF2ZH 23229
2 58964                          -0002Y7MU -0004LW1L -0006UVTB     07

# Worst residual: 1.13 km
# MJD 60364.500000 (2024 Feb 24 12:00)
2024-030B = NORAD 58964 = Falcon 9-300 Stage 2
1 58964U 24030B   24055.49919926 -005M8SHO +00256QR2 -0021QGWUH 23229
2 58964                          -0001OTFK -00059D91 -0006HKNC     08

# Worst residual: 0.56 km
# MJD 60365.500000 (2024 Feb 25 12:00)
2024-030B = NORAD 58964 = Falcon 9-300 Stage 2
1 58964U 24030B   24056.49919926 -005VU940 +000U8PFU -003JCXOHH 23228
2 58964                          -0000KJ5Q -0005JUY4 -0005WHL3     09

# Worst residual: 0.28 km
# MJD 60366.500000 (2024 Feb 26 12:00)
2024-030B = NORAD 58964 = Falcon 9-300 Stage 2
1 58964U 24030B   24057.49919926 -005WUJAA -000HYVHE -004VK9WYH 23229
2 58964                          +0000AJZZ -0005KNKU -0005988F     01

# Worst residual: 0.16 km
# MJD 60367.500000 (2024 Feb 27 12:00)
2024-030B = NORAD 58964 = Falcon 9-300 Stage 2
1 58964U 24030B   24058.49919926 -005RGYP5 -001TN0D3 -0062B0J0H 23224
2 58964                          +0000WYT7 -0005FZ5H -0004NCIO     07

# Worst residual: 0.17 km
# MJD 60368.500000 (2024 Feb 28 12:00)
2024-030B = NORAD 58964 = Falcon 9-300 Stage 2
1 58964U 24030B   24059.49919926 -005HJVZJ -0033U6Q5 -00743RDJH 23229
2 58964                          +0001CRHR -00058REC -000443U4     05

# Worst residual: 0.26 km
# MJD 60369.500000 (2024 Feb 29 12:00)
2024-030B = NORAD 58964 = Falcon 9-300 Stage 2
1 58964U 24030B   24060.49919926 -0054FO02 -004C68GW -0081M65DH 23224
2 58964                          +0001NWO8 -00050MF7 -0003NL2U     02

# Worst residual: 0.40 km
# MJD 60370.500000 (2024 Mar  1 12:00)
2024-030B = NORAD 58964 = Falcon 9-300 Stage 2
1 58964U 24030B   24061.49919926 -004P1UDV -005IJ0HE -008VGGCEH 23224
2 58964                          +0001VUOA -0004SCKR -00039GDZ     03

# Worst residual: 0.56 km
# MJD 60371.500000 (2024 Mar  2 12:00)
2024-030B = NORAD 58964 = Falcon 9-300 Stage 2
1 58964U 24030B   24062.49919926 -00481IIP -006MX3C0 -009M5JCGH 23223
2 58964                          +00021KYR -0004KAL6 -0002XBFX     01

# Worst residual: 0.70 km
# MJD 60372.500000 (2024 Mar  3 12:00)
2024-030B = NORAD 58964 = Falcon 9-300 Stage 2
1 58964U 24030B   24063.49919926 -003PUTWM -007PF2ZC -00AA52CKH 23227
2 58964                          +00025QO2 -0004CLOF -0002MTHN     01

# Worst residual: 0.74 km
# MJD 60373.500000 (2024 Mar  4 12:00)
2024-030B = NORAD 58964 = Falcon 9-300 Stage 2
1 58964U 24030B   24064.49919926 -0036TGO4 -008Q4E0W -00AVRVZMH 23224
2 58964                          +00028QM7 -00045BPX -0002DNZH     04

# Worst residual: 0.52 km
# MJD 60374.500000 (2024 Mar  5 12:00)
2024-030B = NORAD 58964 = Falcon 9-300 Stage 2
1 58964U 24030B   24065.49919926 -002N671F -009P4OAG -00BFCKBAH 23229
2 58964                          +0002AUGQ -0003YH6Q -00025MAU     04

# Worst residual: 0.66 km
# MJD 60375.500000 (2024 Mar  6 12:00)
2024-030B = NORAD 58964 = Falcon 9-300 Stage 2
1 58964U 24030B   24066.49919926 -00233W22 -00AMJMYA -00BX3S6AH 23222
2 58964                          +0002C8UM -0003S21A -0001YHHU     03

# Worst residual: 0.60 km
# MJD 60376.500000 (2024 Mar  7 12:00)
2024-030B = NORAD 58964 = Falcon 9-300 Stage 2
1 58964U 24030B   24067.49919926 -001IS1GG -00BIGYCJ -00CD8RCGH 23222
2 58964                          +0002D2QC -0003M24A -0001S46J     00

# Worst residual: 0.34 km
# MJD 60377.500000 (2024 Mar  8 12:00)
2024-030B = NORAD 58964 = Falcon 9-300 Stage 2
1 58964U 24030B   24068.49919926 -000YB2BX -00CD09OC -00CRXL1BH 23225
2 58964                          +0002DG72 -0003GHCI -0001MEBH     01

# Worst residual: 0.37 km
# MJD 60378.500000 (2024 Mar  9 12:00)
2024-030B = NORAD 58964 = Falcon 9-300 Stage 2
1 58964U 24030B   24069.49919926 -000DSGCB -00D697H8 -00D5BI88H 23225
2 58964                          +0002DGYE -0003BBMX -0001H8W2     02

# Worst residual: 0.26 km
# MJD 60379.500000 (2024 Mar 10 12:00)
2024-030B = NORAD 58964 = Falcon 9-300 Stage 2
1 58964U 24030B   24070.49919926 +0006P6AR -00DYBCYA -00DHJ4XTH 23221
2 58964                          +0002D8LJ -00036KPY -0001CLJB     06

# Worst residual: 0.21 km
# MJD 60380.500000 (2024 Mar 11 12:00)
2024-030B = NORAD 58964 = Falcon 9-300 Stage 2
1 58964U 24030B   24071.49919926 +000R41WF -00EPA7DF -00DSOKF3H 23221
2 58964                          +0002CUKX -000327XE -00018E86     03

# Worst residual: 0.27 km
# MJD 60381.500000 (2024 Mar 12 12:00)
2024-030B = NORAD 58964 = Falcon 9-300 Stage 2
1 58964U 24030B   24072.49919926 +001BF7FT -00FF900A -00E2VEYPH 23226
2 58964                          +0002CE1I -0002Y82J -00014L1I     07

# Worst residual: 0.27 km
# MJD 60382.500000 (2024 Mar 13 12:00)
2024-030B = NORAD 58964 = Falcon 9-300 Stage 2
1 58964U 24030B   24073.49919926 +001VMCQB -00G4ANS2 -00EC6UFBH 23221
2 58964                          +0002BXK3 -0002UJI3 -0001143A     05

# Worst residual: 0.37 km
# MJD 60383.500000 (2024 Mar 14 12:00)
2024-030B = NORAD 58964 = Falcon 9-300 Stage 2
1 58964U 24030B   24074.49919926 +002FPQU0 -00GSHO26 -00EKPKI6H 23225
2 58964                          +0002BIZQ -0002R4B2 -0000XXJB     06

# Worst residual: 0.41 km
# MJD 60384.500000 (2024 Mar 15 12:00)
2024-030B = NORAD 58964 = Falcon 9-300 Stage 2
1 58964U 24030B   24075.49919926 +002ZPZS6 -00HFW1C7 -00ESHVHTH 23226
2 58964                          +0002B7HV -0002NWJ1 -0000UZNS     08

